{"type": "FeatureCollection", "features": [ {"type": "Feature", "properties": {"norad_id": 37046, "name": "FENGYUN 1C DEB", "group": "fengyun-1c-debris", "lat": -36.83759716882982, "lon": 17.76114934900496, "alt_km": 791.2030422919825, "timestamp": "2025-12-23T07:45:09.693303+00:00", "meta": {"OBJECT_NAME": "FENGYUN 1C DEB", "OBJECT_ID": "1999-025EEE", "EPOCH": "2025-12-22T06:38:49.300800", "MEAN_MOTION": 14.24871368, "ECCENTRICITY": 0.00487976, "INCLINATION": 98.5432, "RA_OF_ASC_NODE": 10.2776, "ARG_OF_PERICENTER": 278.8551, "MEAN_ANOMALY": 80.7105, "EPHEMERIS_TYPE": 0, "CLASSIFICATION_TYPE": "U", "NORAD_CAT_ID": 37046, "ELEMENT_SET_NO": 999, "REV_AT_EPOCH": 64317, "BSTAR": 0.00063447229, "MEAN_MOTION_DOT": 1.457e-05, "MEAN_MOTION_DDOT": 0}, "tle": {"line1": "1 37046U 99025EEE 25356.27695950  .00001457  00000+0  63447-3 0  9992", "line2": "2 37046  98.5432  10.2776 0048797 278.8551  80.7105 14.24871368643173"}}, "geometry": {"type": "Point", "coordinates": [17.76114934900496, -36.83759716882982]}}, {"type": "Feature", "properties": {"norad_id": 37048, "name": "FENGYUN 1C DEB", "group": "fengyun-1c-debris", "lat": 51.69015769958473, "lon": -153.6628413288661, "alt_km": 940.875346731551, "timestamp": "2025-12-23T07:45:09.693313+00:00", "meta": {"OBJECT_NAME": "FENGYUN 1C DEB", "OBJECT_ID": "1999-025EEG", "EPOCH": "2025-12-20T11:28:01.182144", "MEAN_MOTION": 13.65138161, "ECCENTRICITY": 0.02535701, "INCLINATION": 98.8864, "RA_OF_ASC_NODE": 215.1499, "ARG_OF_PERICENTER": 129.0844, "MEAN_ANOMALY": 350.7839, "EPHEMERIS_TYPE": 0, "CLASSIFICATION_TYPE": "U", "NORAD_CAT_ID": 37048, "ELEMENT_SET_NO": 999, "REV_AT_EPOCH": 62275, "BSTAR": 0.00018884192, "MEAN_MOTION_DOT": 1.54e-06, "MEAN_MOTION_DDOT": 0}, "tle": {"line1": "1 37048U 99025EEG 25354.47779146  .00000154  00000+0  18884-3 0  9992", "line2": "2 37048  98.8864 215.1499 0253570 129.0844 350.7839 13.65138161622750"}}, "geometry": {"type": "Point", "coordinates": [-153.6628413288661, 51.69015769958473]}}, {"type": "Feature", "properties": {"norad_id": 37054, "name": "FENGYUN 1C DEB", "group": "fengyun-1c-debris", "lat": -26.1127677683885, "lon": -16.351787527166298, "alt_km": 846.2038658110268, "timestamp": "2025-12-23T07:45:09.693323+00:00", "meta": {"OBJECT_NAME": "FENGYUN 1C DEB", "OBJECT_ID": "1999-025EEN", "EPOCH": "2025-12-18T04:22:47.839296", "MEAN_MOTION": 14.19457855, "ECCENTRICITY": 0.01012295, "INCLINATION": 98.5505, "RA_OF_ASC_NODE": 334.4558, "ARG_OF_PERICENTER": 89.7023, "MEAN_ANOMALY": 271.5753, "EPHEMERIS_TYPE": 0, "CLASSIFICATION_TYPE": "U", "NORAD_CAT_ID": 37054, "ELEMENT_SET_NO": 999, "REV_AT_EPOCH": 64506, "BSTAR": 0.00022919283, "MEAN_MOTION_DOT": 4.67e-06, "MEAN_MOTION_DDOT": 0}, "tle": {"line1": "1 37054U 99025EEN 25352.18249814  .00000467  00000+0  22919-3 0  9990", "line2": "2 37054  98.5505 334.4558 0101229  89.7023 271.5753 14.19457855645069"}}, "geometry": {"type": "Point", "coordinates": [-16.351787527166298, -26.1127677683885]}}, {"type": "Feature", "properties": {"norad_id": 37056, "name": "FENGYUN 1C DEB", "group": "fengyun-1c-debris", "lat": -79.55581467624302, "lon": 141.23032928468942, "alt_km": 896.4427905984958, "timestamp": "2025-12-23T07:45:09.693333+00:00", "meta": {"OBJECT_NAME": "FENGYUN 1C DEB", "OBJECT_ID": "1999-025EEQ", "EPOCH": "2025-12-17T08:10:24.720960", "MEAN_MOTION": 14.50465139, "ECCENTRICITY": 0.02688582, "INCLINATION": 98.9815, "RA_OF_ASC_NODE": 13.9371, "ARG_OF_PERICENTER": 132.0541, "MEAN_ANOMALY": 230.387, "EPHEMERIS_TYPE": 0, "CLASSIFICATION_TYPE": "U", "NORAD_CAT_ID": 37056, "ELEMENT_SET_NO": 999, "REV_AT_EPOCH": 65478, "BSTAR": 0.0002042958, "MEAN_MOTION_DOT": 1.21e-05, "MEAN_MOTION_DDOT": 0}, "tle": {"line1": "1 37056U 99025EEQ 25351.34056390  .00001210  00000+0  20430-3 0  9997", "line2": "2 37056  98.9815  13.9371 0268858 132.0541 230.3870 14.50465139654781"}}, "geometry": {"type": "Point", "coordinates": [141.23032928468942, -79.55581467624302]}}, {"type": "Feature", "properties": {"norad_id": 37057, "name": "FENGYUN 1C DEB", "group": "fengyun-1c-debris", "lat": 67.69763994810857, "lon": -145.67049184807354, "alt_km": 692.7312777025754, "timestamp": "2025-12-23T07:45:09.693343+00:00", "meta": {"OBJECT_NAME": "FENGYUN 1C DEB", "OBJECT_ID": "1999-025EER", "EPOCH": "2025-12-19T18:57:33.353568", "MEAN_MOTION": 13.96116671, "ECCENTRICITY": 0.02853199, "INCLINATION": 98.9208, "RA_OF_ASC_NODE": 8.387, "ARG_OF_PERICENTER": 120.0686, "MEAN_ANOMALY": 242.91, "EPHEMERIS_TYPE": 0, "CLASSIFICATION_TYPE": "U", "NORAD_CAT_ID": 37057, "ELEMENT_SET_NO": 999, "REV_AT_EPOCH": 63696, "BSTAR": 7.2468399e-05, "MEAN_MOTION_DOT": 9.9e-07, "MEAN_MOTION_DDOT": 0}, "tle": {"line1": "1 37057U 99025EER 25353.78996937  .00000099  00000+0  72468-4 0  9991", "line2": "2 37057  98.9208   8.3870 0285319 120.0686 242.9100 13.96116671636966"}}, "geometry": {"type": "Point", "coordinates": [-145.67049184807354, 67.69763994810857]}}, {"type": "Feature", "properties": {"norad_id": 37061, "name": "FENGYUN 1C DEB", "group": "fengyun-1c-debris", "lat": 1.756683135561253, "lon": -120.46836460690821, "alt_km": 1781.8982364893309, "timestamp": "2025-12-23T07:45:09.693355+00:00", "meta": {"OBJECT_NAME": "FENGYUN 1C DEB", "OBJECT_ID": "1999-025EEV", "EPOCH": "2025-12-22T10:42:39.888864", "MEAN_MOTION": 13.13604705, "ECCENTRICITY": 0.08010232, "INCLINATION": 98.0832, "RA_OF_ASC_NODE": 58.6052, "ARG_OF_PERICENTER": 341.5304, "MEAN_ANOMALY": 15.8205, "EPHEMERIS_TYPE": 0, "CLASSIFICATION_TYPE": "U", "NORAD_CAT_ID": 37061, "ELEMENT_SET_NO": 999, "REV_AT_EPOCH": 8283, "BSTAR": 0.002300659, "MEAN_MOTION_DOT": 4.442e-05, "MEAN_MOTION_DDOT": 0}, "tle": {"line1": "1 37061U 99025EEV 25356.44629501  .00004442  00000+0  23007-2 0  9991", "line2": "2 37061  98.0832  58.6052 0801023 341.5304  15.8205 13.13604705 82831"}}, "geometry": {"type": "Point", "coordinates": [-120.46836460690821, 1.756683135561253]}}, {"type": "Feature", "properties": {"norad_id": 37064, "name": "FENGYUN 1C DEB", "group": "fengyun-1c-debris", "lat": 28.331658319025827, "lon": 144.61152633354985, "alt_km": 780.7638716084566, "timestamp": "2025-12-23T07:45:09.693371+00:00", "meta": {"OBJECT_NAME": "FENGYUN 1C DEB", "OBJECT_ID": "1999-025EEY", "EPOCH": "2025-11-25T16:29:09.460320", "MEAN_MOTION": 14.15612933, "ECCENTRICITY": 0.01070067, "INCLINATION": 98.9095, "RA_OF_ASC_NODE": 121.83, "ARG_OF_PERICENTER": 150.7609, "MEAN_ANOMALY": 209.9612, "EPHEMERIS_TYPE": 0, "CLASSIFICATION_TYPE": "U", "NORAD_CAT_ID": 37064, "ELEMENT_SET_NO": 999, "REV_AT_EPOCH": 81294, "BSTAR": 0.0049331234, "MEAN_MOTION_DOT": 0.00010179, "MEAN_MOTION_DDOT": 0}, "tle": {"line1": "1 37064U 99025EEY 25329.68691505  .00010179  00000+0  49331-2 0  9995", "line2": "2 37064  98.9095 121.8300 0107006 150.7609 209.9612 14.15612933812947"}}, "geometry": {"type": "Point", "coordinates": [144.61152633354985, 28.331658319025827]}}, {"type": "Feature", "properties": {"norad_id": 37065, "name": "FENGYUN 1C DEB", "group": "fengyun-1c-debris", "lat": -75.23497835164149, "lon": -120.46778427839276, "alt_km": 919.9017993110529, "timestamp": "2025-12-23T07:45:09.693382+00:00", "meta": {"OBJECT_NAME": "FENGYUN 1C DEB", "OBJECT_ID": "1999-025EEZ", "EPOCH": "2025-12-13T18:30:23.335488", "MEAN_MOTION": 13.59126537, "ECCENTRICITY": 0.02987556, "INCLINATION": 103.2861, "RA_OF_ASC_NODE": 162.9273, "ARG_OF_PERICENTER": 240.3853, "MEAN_ANOMALY": 116.7203, "EPHEMERIS_TYPE": 0, "CLASSIFICATION_TYPE": "U", "NORAD_CAT_ID": 37065, "ELEMENT_SET_NO": 999, "REV_AT_EPOCH": 22216, "BSTAR": 0.0032978969, "MEAN_MOTION_DOT": 3.181e-05, "MEAN_MOTION_DDOT": 0}, "tle": {"line1": "1 37065U 99025EEZ 25347.77110342  .00003181  00000+0  32979-2 0  9996", "line2": "2 37065 103.2861 162.9273 0298755 240.3853 116.7203 13.59126537222160"}}, "geometry": {"type": "Point", "coordinates": [-120.46778427839276, -75.23497835164149]}}, {"type": "Feature", "properties": {"norad_id": 37067, "name": "FENGYUN 1C DEB", "group": "fengyun-1c-debris", "lat": -22.164196118072557, "lon": 115.40799112367245, "alt_km": 952.3056319694433, "timestamp": "2025-12-23T07:45:09.693392+00:00", "meta": {"OBJECT_NAME": "FENGYUN 1C DEB", "OBJECT_ID": "1999-025EFB", "EPOCH": "2025-12-22T18:48:08.678592", "MEAN_MOTION": 14.00413613, "ECCENTRICITY": 0.01569364, "INCLINATION": 99.539, "RA_OF_ASC_NODE": 298.7728, "ARG_OF_PERICENTER": 84.4124, "MEAN_ANOMALY": 277.4913, "EPHEMERIS_TYPE": 0, "CLASSIFICATION_TYPE": "U", "NORAD_CAT_ID": 37067, "ELEMENT_SET_NO": 999, "REV_AT_EPOCH": 57549, "BSTAR": 0.0037911676, "MEAN_MOTION_DOT": 6.209e-05, "MEAN_MOTION_DDOT": 0}, "tle": {"line1": "1 37067U 99025EFB 25356.78343378  .00006209  00000+0  37912-2 0  9992", "line2": "2 37067  99.5390 298.7728 0156936  84.4124 277.4913 14.00413613575492"}}, "geometry": {"type": "Point", "coordinates": [115.40799112367245, -22.164196118072557]}}, {"type": "Feature", "properties": {"norad_id": 37069, "name": "FENGYUN 1C DEB", "group": "fengyun-1c-debris", "lat": -49.37189109069752, "lon": 136.3968849085696, "alt_km": 806.2918743316104, "timestamp": "2025-12-23T07:45:09.693402+00:00", "meta": {"OBJECT_NAME": "FENGYUN 1C DEB", "OBJECT_ID": "1999-025EFD", "EPOCH": "2025-12-21T04:20:13.765632", "MEAN_MOTION": 13.38005069, "ECCENTRICITY": 0.04234335, "INCLINATION": 95.8488, "RA_OF_ASC_NODE": 322.0189, "ARG_OF_PERICENTER": 233.7857, "MEAN_ANOMALY": 122.3437, "EPHEMERIS_TYPE": 0, "CLASSIFICATION_TYPE": "U", "NORAD_CAT_ID": 37069, "ELEMENT_SET_NO": 999, "REV_AT_EPOCH": 87821, "BSTAR": 0.00093197507, "MEAN_MOTION_DOT": 8.07e-06, "MEAN_MOTION_DDOT": 0}, "tle": {"line1": "1 37069U 99025EFD 25355.18071488  .00000807  00000+0  93198-3 0  9994", "line2": "2 37069  95.8488 322.0189 0423433 233.7857 122.3437 13.38005069878211"}}, "geometry": {"type": "Point", "coordinates": [136.3968849085696, -49.37189109069752]}}]}